[{"OBJECT_NAME":"STARLINK-30808","OBJECT_ID":"2023-171W","EPOCH":"2026-03-09T16:00:03.000096","MEAN_MOTION":15.27571391,"ECCENTRICITY":0.00014166,"INCLINATION":42.9999,"RA_OF_ASC_NODE":285.5384,"ARG_OF_PERICENTER":255.7839,"MEAN_ANOMALY":282.5743,"EPHEMERIS_TYPE":0,"CLASSIFICATION_TYPE":"U","NORAD_CAT_ID":58250,"ELEMENT_SET_NO":999,"REV_AT_EPOCH":574,"BSTAR":0.00018538875,"MEAN_MOTION_DOT":4.841e-5,"MEAN_MOTION_DDOT":0},{"OBJECT_NAME":"COSMOS 1758","OBJECT_ID":"1986-046A","EPOCH":"2026-03-09T22:23:33.220896","MEAN_MOTION":15.25706639,"ECCENTRICITY":0.00131526,"INCLINATION":82.4607,"RA_OF_ASC_NODE":143.3203,"ARG_OF_PERICENTER":337.3781,"MEAN_ANOMALY":22.6875,"EPHEMERIS_TYPE":0,"CLASSIFICATION_TYPE":"U","NORAD_CAT_ID":16791,"ELEMENT_SET_NO":999,"REV_AT_EPOCH":16610,"BSTAR":0.00027304427,"MEAN_MOTION_DOT":7.006e-5,"MEAN_MOTION_DDOT":0}]
